[{"OBJECT_NAME":"STARLINK-35476","OBJECT_ID":"2025-280E","EPOCH":"2026-03-09T21:33:09.277920","MEAN_MOTION":14.98331795,"ECCENTRICITY":0.00026365,"INCLINATION":70.0019,"RA_OF_ASC_NODE":334.0691,"ARG_OF_PERICENTER":266.3265,"MEAN_ANOMALY":93.7592,"EPHEMERIS_TYPE":0,"CLASSIFICATION_TYPE":"U","NORAD_CAT_ID":66825,"ELEMENT_SET_NO":999,"REV_AT_EPOCH":1610,"BSTAR":0.00027541803,"MEAN_MOTION_DOT":3.195e-5,"MEAN_MOTION_DDOT":0},{"OBJECT_NAME":"CZ-6A DEB","OBJECT_ID":"2022-151EL","EPOCH":"2026-03-09T12:09:26.951616","MEAN_MOTION":14.86893831,"ECCENTRICITY":0.00944101,"INCLINATION":98.6325,"RA_OF_ASC_NODE":168.3306,"ARG_OF_PERICENTER":70.5159,"MEAN_ANOMALY":290.6224,"EPHEMERIS_TYPE":0,"CLASSIFICATION_TYPE":"U","NORAD_CAT_ID":54412,"ELEMENT_SET_NO":999,"REV_AT_EPOCH":17774,"BSTAR":0.0014840705,"MEAN_MOTION_DOT":0.00014338,"MEAN_MOTION_DDOT":0}]
